[{"OBJECT_NAME":"STARLINK-3608","OBJECT_ID":"2022-017J","EPOCH":"2026-03-09T22:08:33.514368","MEAN_MOTION":15.08832092,"ECCENTRICITY":0.00021097,"INCLINATION":53.2197,"RA_OF_ASC_NODE":338.0802,"ARG_OF_PERICENTER":81.3121,"MEAN_ANOMALY":278.811,"EPHEMERIS_TYPE":0,"CLASSIFICATION_TYPE":"U","NORAD_CAT_ID":51776,"ELEMENT_SET_NO":999,"REV_AT_EPOCH":22260,"BSTAR":3.028748e-6,"MEAN_MOTION_DOT":-2.4e-6,"MEAN_MOTION_DDOT":0},{"OBJECT_NAME":"ATLAS 5 CENTAUR R\/B","OBJECT_ID":"2013-072P","EPOCH":"2026-03-09T21:36:10.628064","MEAN_MOTION":14.96443736,"ECCENTRICITY":0.0189428,"INCLINATION":120.4328,"RA_OF_ASC_NODE":111.5185,"ARG_OF_PERICENTER":160.796,"MEAN_ANOMALY":200.0359,"EPHEMERIS_TYPE":0,"CLASSIFICATION_TYPE":"U","NORAD_CAT_ID":39475,"ELEMENT_SET_NO":999,"REV_AT_EPOCH":9970,"BSTAR":0.00054929733,"MEAN_MOTION_DOT":8.701e-5,"MEAN_MOTION_DDOT":0}]
